{
  "type": "FeatureCollection",
  "features": [
    {
      "type": "Feature",
      "properties": {
        "norad_id": 40118,
        "name": "GAOFEN-2",
        "group": "resource",
        "lat": 37.88593375241579,
        "lon": 49.488735900949465,
        "alt_km": 620.4165286852349,
        "timestamp": "2025-12-22T14:45:57.042010+00:00",
        "meta_object_name": "GAOFEN-2",
        "meta_object_id": "2014-049A",
        "meta_epoch": "2025-12-22T06:29:01.720320",
        "meta_mean_motion": 14.80624665,
        "meta_eccentricity": 0.00087736,
        "meta_inclination": 98.0375,
        "meta_ra_of_asc_node": 55.4553,
        "meta_arg_of_pericenter": 86.7911,
        "meta_mean_anomaly": 273.4305,
        "meta_ephemeris_type": 0,
        "meta_classification_type": "U",
        "meta_norad_cat_id": 40118,
        "meta_element_set_no": 999,
        "meta_rev_at_epoch": 61305,
        "meta_bstar": 0.00012686741,
        "meta_mean_motion_dot": 9.21e-06,
        "meta_mean_motion_ddot": 0,
        "tle_line1": "1 40118U 14049A   25356.27015880  .00000921  00000+0  12687-3 0  9992",
        "tle_line2": "2 40118  98.0375  55.4553 0008773  86.7911 273.4305 14.80624665613053"
      },
      "geometry": {
        "type": "Point",
        "coordinates": [
          49.488735900949465,
          37.88593375241579
        ]
      }
    },
    {
      "type": "Feature",
      "properties": {
        "norad_id": 40143,
        "name": "YAOGAN-21",
        "group": "resource",
        "lat": 82.62211534430361,
        "lon": -63.90718807332932,
        "alt_km": 486.25344821085037,
        "timestamp": "2025-12-22T14:45:57.042020+00:00",
        "meta_object_name": "YAOGAN-21",
        "meta_object_id": "2014-053A",
        "meta_epoch": "2025-12-22T06:29:06.428256",
        "meta_mean_motion": 15.23763108,
        "meta_eccentricity": 0.00087829,
        "meta_inclination": 97.174,
        "meta_ra_of_asc_node": 39.169,
        "meta_arg_of_pericenter": 10.2594,
        "meta_mean_anomaly": 349.8821,
        "meta_ephemeris_type": 0,
        "meta_classification_type": "U",
        "meta_norad_cat_id": 40143,
        "meta_element_set_no": 999,
        "meta_rev_at_epoch": 62799,
        "meta_bstar": 0.00017105393,
        "meta_mean_motion_dot": 4.05e-05,
        "meta_mean_motion_ddot": 0,
        "tle_line1": "1 40143U 14053A   25356.27021329  .00004050  00000+0  17105-3 0  9997",
        "tle_line2": "2 40143  97.1740  39.1690 0008782  10.2594 349.8821 15.23763108627990"
      },
      "geometry": {
        "type": "Point",
        "coordinates": [
          -63.90718807332932,
          82.62211534430361
        ]
      }
    },
    {
      "type": "Feature",
      "properties": {
        "norad_id": 40275,
        "name": "YAOGAN-22",
        "group": "resource",
        "lat": 77.08137201525886,
        "lon": 16.0296643218955,
        "alt_km": 1197.3060874678167,
        "timestamp": "2025-12-22T14:45:57.042031+00:00",
        "meta_object_name": "YAOGAN-22",
        "meta_object_id": "2014-063A",
        "meta_epoch": "2025-12-21T20:01:14.577600",
        "meta_mean_motion": 13.15522949,
        "meta_eccentricity": 0.00060434,
        "meta_inclination": 100.7428,
        "meta_ra_of_asc_node": 139.3823,
        "meta_arg_of_pericenter": 226.3916,
        "meta_mean_anomaly": 133.6694,
        "meta_ephemeris_type": 0,
        "meta_classification_type": "U",
        "meta_norad_cat_id": 40275,
        "meta_element_set_no": 999,
        "meta_rev_at_epoch": 53649,
        "meta_bstar": 7.018864e-05,
        "meta_mean_motion_dot": -2e-07,
        "meta_mean_motion_ddot": 0,
        "tle_line1": "1 40275U 14063A   25355.83419650 -.00000020  00000+0  70189-4 0  9999",
        "tle_line2": "2 40275 100.7428 139.3823 0006043 226.3916 133.6694 13.15522949536493"
      },
      "geometry": {
        "type": "Point",
        "coordinates": [
          16.0296643218955,
          77.08137201525886
        ]
      }
    },
    {
      "type": "Feature",
      "properties": {
        "norad_id": 40298,
        "name": "ASNARO",
        "group": "resource",
        "lat": -7.157761004390717,
        "lon": 73.25157795570945,
        "alt_km": 511.64410921548733,
        "timestamp": "2025-12-22T14:45:57.042041+00:00",
        "meta_object_name": "ASNARO",
        "meta_object_id": "2014-070A",
        "meta_epoch": "2025-12-22T05:18:56.951136",
        "meta_mean_motion": 15.19679305,
        "meta_eccentricity": 0.00057202,
        "meta_inclination": 97.3648,
        "meta_ra_of_asc_node": 71.9367,
        "meta_arg_of_pericenter": 97.4427,
        "meta_mean_anomaly": 262.7458,
        "meta_ephemeris_type": 0,
        "meta_classification_type": "U",
        "meta_norad_cat_id": 40298,
        "meta_element_set_no": 999,
        "meta_rev_at_epoch": 61713,
        "meta_bstar": 0.00066494586,
        "meta_mean_motion_dot": 0.00014144,
        "meta_mean_motion_ddot": 0,
        "tle_line1": "1 40298U 14070A   25356.22149249  .00014144  00000+0  66495-3 0  9995",
        "tle_line2": "2 40298  97.3648  71.9367 0005720  97.4427 262.7458 15.19679305617130"
      },
      "geometry": {
        "type": "Point",
        "coordinates": [
          73.25157795570945,
          -7.157761004390717
        ]
      }
    },
    {
      "type": "Feature",
      "properties": {
        "norad_id": 40310,
        "name": "YAOGAN-24",
        "group": "resource",
        "lat": -44.65607303554069,
        "lon": -60.351222772834305,
        "alt_km": 652.8579384175673,
        "timestamp": "2025-12-22T14:45:57.042050+00:00",
        "meta_object_name": "YAOGAN-24",
        "meta_object_id": "2014-072A",
        "meta_epoch": "2025-12-22T07:14:35.920896",
        "meta_mean_motion": 14.76193369,
        "meta_eccentricity": 0.0015136,
        "meta_inclination": 98.1229,
        "meta_ra_of_asc_node": 127.4464,
        "meta_arg_of_pericenter": 109.3966,
        "meta_mean_anomaly": 250.8881,
        "meta_ephemeris_type": 0,
        "meta_classification_type": "U",
        "meta_norad_cat_id": 40310,
        "meta_element_set_no": 999,
        "meta_rev_at_epoch": 59762,
        "meta_bstar": 3.9786764e-05,
        "meta_mean_motion_dot": 2.23e-06,
        "meta_mean_motion_ddot": 0,
        "tle_line1": "1 40310U 14072A   25356.30180464  .00000223  00000+0  39787-4 0  9993",
        "tle_line2": "2 40310  98.1229 127.4464 0015136 109.3966 250.8881 14.76193369597629"
      },
      "geometry": {
        "type": "Point",
        "coordinates": [
          -60.351222772834305,
          -44.65607303554069
        ]
      }
    },
    {
      "type": "Feature",
      "properties": {
        "norad_id": 40336,
        "name": "CBERS 4",
        "group": "resource",
        "lat": -37.783971730834544,
        "lon": 60.815735705918236,
        "alt_km": 780.7166676821425,
        "timestamp": "2025-12-22T14:45:57.042060+00:00",
        "meta_object_name": "CBERS 4",
        "meta_object_id": "2014-079A",
        "meta_epoch": "2025-12-22T06:34:46.504704",
        "meta_mean_motion": 14.35521189,
        "meta_eccentricity": 0.00018541,
        "meta_inclination": 98.3298,
        "meta_ra_of_asc_node": 53.9647,
        "meta_arg_of_pericenter": 102.0364,
        "meta_mean_anomaly": 258.103,
        "meta_ephemeris_type": 0,
        "meta_classification_type": "U",
        "meta_norad_cat_id": 40336,
        "meta_element_set_no": 999,
        "meta_rev_at_epoch": 57857,
        "meta_bstar": 7.3000793e-05,
        "meta_mean_motion_dot": 1.68e-06,
        "meta_mean_motion_ddot": 0,
        "tle_line1": "1 40336U 14079A   25356.27414936  .00000168  00000+0  73001-4 0  9993",
        "tle_line2": "2 40336  98.3298  53.9647 0001854 102.0364 258.1030 14.35521189578575"
      },
      "geometry": {
        "type": "Point",
        "coordinates": [
          60.815735705918236,
          -37.783971730834544
        ]
      }
    },
    {
      "type": "Feature",
      "properties": {
        "norad_id": 40362,
        "name": "YAOGAN-26",
        "group": "resource",
        "lat": 4.988250180429479,
        "lon": -3.6812904268302855,
        "alt_km": 446.29158696672494,
        "timestamp": "2025-12-22T14:45:57.042070+00:00",
        "meta_object_name": "YAOGAN-26",
        "meta_object_id": "2014-088A",
        "meta_epoch": "2025-12-22T06:56:41.541216",
        "meta_mean_motion": 15.39615977,
        "meta_eccentricity": 0.00049518,
        "meta_inclination": 97.0636,
        "meta_ra_of_asc_node": 356.6244,
        "meta_arg_of_pericenter": 0.5352,
        "meta_mean_anomaly": 359.5899,
        "meta_ephemeris_type": 0,
        "meta_classification_type": "U",
        "meta_norad_cat_id": 40362,
        "meta_element_set_no": 999,
        "meta_rev_at_epoch": 61041,
        "meta_bstar": 0.00053316792,
        "meta_mean_motion_dot": 0.00020966,
        "meta_mean_motion_ddot": 0,
        "tle_line1": "1 40362U 14088A   25356.28936969  .00020966  00000+0  53317-3 0  9993",
        "tle_line2": "2 40362  97.0636 356.6244 0004951   0.5352 359.5899 15.39615977610415"
      },
      "geometry": {
        "type": "Point",
        "coordinates": [
          -3.6812904268302855,
          4.988250180429479
        ]
      }
    }
  ]
}